[
    {
        "locationId": 1,
        "name": "Warehouse A",
        "address": "1234 Main St",
        "city": "Metropolis",
        "state": "NY",
        "zipcode": "10001"
    },
    {
        "locationId": 2,
        "name": "Warehouse B",
        "address": "5678 Market St",
        "city": "Gotham",
        "state": "NJ",
        "zipcode": "07001"
    },
    {
        "locationId": 3,
        "name": "Warehouse C",
        "address": "9101 Broadway Ave",
        "city": "Star City",
        "state": "CA",
        "zipcode": "90001"
    },
    {
        "locationId": 4,
        "name": "Warehouse D",
        "address": "1213 Liberty Rd",
        "city": "Central City",
        "state": "IL",
        "zipcode": "60001"
    },
    {
        "locationId": 5,
        "name": "Warehouse E",
        "address": "1415 Beacon St",
        "city": "Coast City",
        "state": "FL",
        "zipcode": "32001"
    },
    {
        "locationId": 6,
        "name": "Warehouse F",
        "address": "1617 Elm St",
        "city": "Smallville",
        "state": "KS",
        "zipcode": "66001"
    },
    {
        "locationId": 7,
        "name": "Warehouse G",
        "address": "1819 Pine St",
        "city": "Riverdale",
        "state": "NY",
        "zipcode": "10501"
    },
    {
        "locationId": 8,
        "name": "Warehouse H",
        "address": "2021 Maple St",
        "city": "Hill Valley",
        "state": "CA",
        "zipcode": "94001"
    },
    {
        "locationId": 9,
        "name": "Warehouse I",
        "address": "2223 Oak St",
        "city": "Springfield",
        "state": "IL",
        "zipcode": "62701"
    },
    {
        "locationId": 10,
        "name": "Warehouse J",
        "address": "2425 Cedar St",
        "city": "Shelbyville",
        "state": "TN",
        "zipcode": "37160"
    },
    {
        "locationId": 11,
        "name": "Warehouse K",
        "address": "2627 Birch St",
        "city": "Quahog",
        "state": "RI",
        "zipcode": "02860"
    },
    {
        "locationId": 12,
        "name": "Warehouse L",
        "address": "2829 Spruce St",
        "city": "South Park",
        "state": "CO",
        "zipcode": "80440"
    },
    {
        "locationId": 13,
        "name": "Warehouse M",
        "address": "3031 Willow St",
        "city": "Arlen",
        "state": "TX",
        "zipcode": "78002"
    },
    {
        "locationId": 14,
        "name": "Warehouse N",
        "address": "3233 Fir St",
        "city": "Hogsmeade",
        "state": "MA",
        "zipcode": "01002"
    },
    {
        "locationId": 15,
        "name": "Warehouse O",
        "address": "3435 Alder St",
        "city": "Bedrock",
        "state": "WY",
        "zipcode": "82001"
    },
    {
        "locationId": 16,
        "name": "Warehouse P",
        "address": "3637 Ash St",
        "city": "Atlantis",
        "state": "GA",
        "zipcode": "30301"
    },
    {
        "locationId": 17,
        "name": "Warehouse Q",
        "address": "3839 Poplar St",
        "city": "Emerald City",
        "state": "KS",
        "zipcode": "66101"
    },
    {
        "locationId": 18,
        "name": "Warehouse R",
        "address": "4041 Redwood St",
        "city": "Sunnydale",
        "state": "CA",
        "zipcode": "91001"
    },
    {
        "locationId": 19,
        "name": "Warehouse S",
        "address": "4243 Palm St",
        "city": "Eureka",
        "state": "CA",
        "zipcode": "95501"
    },
    {
        "locationId": 20,
        "name": "Warehouse T",
        "address": "4445 Cypress St",
        "city": "Twin Peaks",
        "state": "WA",
        "zipcode": "98201"
    },
    {
        "locationId": 21,
        "name": "Warehouse U",
        "address": "4647 Magnolia St",
        "city": "Raccoon City",
        "state": "IN",
        "zipcode": "46001"
    },
    {
        "locationId": 22,
        "name": "Warehouse V",
        "address": "4849 Juniper St",
        "city": "Hill House",
        "state": "OH",
        "zipcode": "43201"
    },
    {
        "locationId": 23,
        "name": "Warehouse W",
        "address": "5051 Hickory St",
        "city": "Silent Hill",
        "state": "PA",
        "zipcode": "15001"
    },
    {
        "locationId": 24,
        "name": "Warehouse X",
        "address": "5253 Redwood St",
        "city": "Mystic Falls",
        "state": "VA",
        "zipcode": "22901"
    },
    {
        "locationId": 25,
        "name": "Warehouse Y",
        "address": "5455 Dogwood St",
        "city": "Stars Hollow",
        "state": "CT",
        "zipcode": "06460"
    },
    {
        "locationId": 26,
        "name": "Warehouse Z",
        "address": "5657 Aspen St",
        "city": "Bon Temps",
        "state": "LA",
        "zipcode": "70001"
    },
    {
        "locationId": 27,
        "name": "Warehouse AA",
        "address": "5859 Maplewood St",
        "city": "Bikini Bottom",
        "state": "NY",
        "zipcode": "11901"
    },
    {
        "locationId": 28,
        "name": "Warehouse AB",
        "address": "6061 Juniper St",
        "city": "Narnia",
        "state": "NY",
        "zipcode": "10002"
    },
    {
        "locationId": 29,
        "name": "Warehouse AC",
        "address": "6263 Sycamore St",
        "city": "Pawnee",
        "state": "IN",
        "zipcode": "46002"
    },
    {
        "locationId": 30,
        "name": "Warehouse AD",
        "address": "6465 Maple St",
        "city": "Elwood City",
        "state": "PA",
        "zipcode": "15002"
    },
    {
        "locationId": 31,
        "name": "Warehouse AE",
        "address": "6667 Cedarwood St",
        "city": "Springfield",
        "state": "MO",
        "zipcode": "65801"
    },
    {
        "locationId": 32,
        "name": "Warehouse AF",
        "address": "6869 Laurel St",
        "city": "Hawkins",
        "state": "IN",
        "zipcode": "46003"
    },
    {
        "locationId": 33,
        "name": "Warehouse AG",
        "address": "7071 Chestnut St",
        "city": "Lake Town",
        "state": "VT",
        "zipcode": "05001"
    },
    {
        "locationId": 34,
        "name": "Warehouse AH",
        "address": "7273 Hickory St",
        "city": "Eden",
        "state": "NC",
        "zipcode": "27288"
    },
    {
        "locationId": 35,
        "name": "Warehouse AI",
        "address": "7475 Beech St",
        "city": "Salem",
        "state": "MA",
        "zipcode": "01970"
    },
    {
        "locationId": 36,
        "name": "Warehouse AJ",
        "address": "7677 Sprucewood St",
        "city": "Gotham",
        "state": "NY",
        "zipcode": "10003"
    },
    {
        "locationId": 37,
        "name": "Warehouse AK",
        "address": "7879 Ashwood St",
        "city": "Central City",
        "state": "CA",
        "zipcode": "90002"
    },
    {
        "locationId": 38,
        "name": "Warehouse AL",
        "address": "8081 Pinewood St",
        "city": "Metropolis",
        "state": "IL",
        "zipcode": "60002"
    },
    {
        "locationId": 39,
        "name": "Warehouse AM",
        "address": "8283 Oakwood St",
        "city": "Gotham",
        "state": "NJ",
        "zipcode": "07002"
    },
    {
        "locationId": 40,
        "name": "Warehouse AN",
        "address": "8485 Birchwood St",
        "city": "Star City",
        "state": "CA",
        "zipcode": "90003"
    },
    {
        "locationId": 41,
        "name": "Warehouse AO",
        "address": "8687 Elmwood St",
        "city": "Smallville",
        "state": "KS",
        "zipcode": "66002"
    },
    {
        "locationId": 42,
        "name": "Warehouse AP",
        "address": "8889 Redwoodwood St",
        "city": "Riverdale",
        "state": "NY",
        "zipcode": "10502"
    },
    {
        "locationId": 43,
        "name": "Warehouse AQ",
        "address": "9091 Palmwood St",
        "city": "Hill Valley",
        "state": "CA",
        "zipcode": "94002"
    },
    {
        "locationId": 44,
        "name": "Warehouse AR",
        "address": "9293 Cypresswood St",
        "city": "Springfield",
        "state": "IL",
        "zipcode": "62702"
    },
    {
        "locationId": 45,
        "name": "Warehouse AS",
        "address": "9495 Magnoliawood St",
        "city": "Shelbyville",
        "state": "TN",
        "zipcode": "37161"
    },
    {
        "locationId": 46,
        "name": "Warehouse AT",
        "address": "9697 Juniperwood St",
        "city": "Quahog",
        "state": "RI",
        "zipcode": "02861"
    },
    {
        "locationId": 47,
        "name": "Warehouse AU",
        "address": "9899 Hickorywood St",
        "city": "South Park",
        "state": "CO",
        "zipcode": "80441"
    },
    {
        "locationId": 48,
        "name": "Warehouse AV",
        "address": "100101 Maplewood St",
        "city": "Arlen",
        "state": "TX",
        "zipcode": "78003"
    },
    {
        "locationId": 49,
        "name": "Warehouse AW",
        "address": "102103 Sprucewood St",
        "city": "Hogsmeade",
        "state": "MA",
        "zipcode": "01003"
    },
    {
        "locationId": 50,
        "name": "Warehouse AX",
        "address": "104105 Firwood St",
        "city": "Bedrock",
        "state": "WY",
        "zipcode": "82002"
    },
    {
        "locationId": 51,
        "name": "Warehouse AY",
        "address": "106107 Alderwood St",
        "city": "Atlantis",
        "state": "GA",
        "zipcode": "30302"
    },
    {
        "locationId": 52,
        "name": "Warehouse AZ",
        "address": "108109 Ashwood St",
        "city": "Emerald City",
        "state": "KS",
        "zipcode": "66102"
    },
    {
        "locationId": 53,
        "name": "Warehouse BA",
        "address": "110111 Poplarwood St",
        "city": "Sunnydale",
        "state": "CA",
        "zipcode": "91002"
    },
    {
        "locationId": 54,
        "name": "Warehouse BB",
        "address": "112113 Pinewood St",
        "city": "Eureka",
        "state": "CA",
        "zipcode": "95502"
    },
    {
        "locationId": 55,
        "name": "Warehouse BC",
        "address": "114115 Redwoodwood St",
        "city": "Twin Peaks",
        "state": "WA",
        "zipcode": "98202"
    },
    {
        "locationId": 56,
        "name": "Warehouse BD",
        "address": "116117 Palmwood St",
        "city": "Raccoon City",
        "state": "IN",
        "zipcode": "46002"
    },
    {
        "locationId": 57,
        "name": "Warehouse BE",
        "address": "118119 Cypresswood St",
        "city": "Hill House",
        "state": "OH",
        "zipcode": "43202"
    },
    {
        "locationId": 58,
        "name": "Warehouse BF",
        "address": "120121 Magnoliawood St",
        "city": "Silent Hill",
        "state": "PA",
        "zipcode": "15002"
    },
    {
        "locationId": 59,
        "name": "Warehouse BG",
        "address": "122123 Juniperwood St",
        "city": "Mystic Falls",
        "state": "VA",
        "zipcode": "22902"
    },
    {
        "locationId": 60,
        "name": "Warehouse BH",
        "address": "124125 Hickorywood St",
        "city": "Stars Hollow",
        "state": "CT",
        "zipcode": "06461"
    },
    {
        "locationId": 61,
        "name": "Warehouse BI",
        "address": "126127 Dogwoodwood St",
        "city": "Bon Temps",
        "state": "LA",
        "zipcode": "70002"
    },
    {
        "locationId": 62,
        "name": "Warehouse BJ",
        "address": "128129 Aspenwood St",
        "city": "Bikini Bottom",
        "state": "NY",
        "zipcode": "11902"
    },
    {
        "locationId": 63,
        "name": "Warehouse BK",
        "address": "130131 Maplewood St",
        "city": "Narnia",
        "state": "NY",
        "zipcode": "10003"
    },
    {
        "locationId": 64,
        "name": "Warehouse BL",
        "address": "132133 Sycamorewood St",
        "city": "Pawnee",
        "state": "IN",
        "zipcode": "46003"
    },
    {
        "locationId": 65,
        "name": "Warehouse BM",
        "address": "134135 Maplewood St",
        "city": "Elwood City",
        "state": "PA",
        "zipcode": "15003"
    },
    {
        "locationId": 66,
        "name": "Warehouse BN",
        "address": "136137 Cedarwood St",
        "city": "Springfield",
        "state": "MO",
        "zipcode": "65802"
    },
    {
        "locationId": 67,
        "name": "Warehouse BO",
        "address": "138139 Laurelwood St",
        "city": "Hawkins",
        "state": "IN",
        "zipcode": "46004"
    },
    {
        "locationId": 68,
        "name": "Warehouse BP",
        "address": "140141 Chestnutwood St",
        "city": "Lake Town",
        "state": "VT",
        "zipcode": "05002"
    },
    {
        "locationId": 69,
        "name": "Warehouse BQ",
        "address": "142143 Hickorywood St",
        "city": "Eden",
        "state": "NC",
        "zipcode": "27289"
    },
    {
        "locationId": 70,
        "name": "Warehouse BR",
        "address": "144145 Beechwood St",
        "city": "Salem",
        "state": "MA",
        "zipcode": "01971"
    },
    {
        "locationId": 71,
        "name": "Warehouse BS",
        "address": "146147 Sprucewood St",
        "city": "Gotham",
        "state": "NY",
        "zipcode": "10004"
    },
    {
        "locationId": 72,
        "name": "Warehouse BT",
        "address": "148149 Ashwood St",
        "city": "Central City",
        "state": "CA",
        "zipcode": "90004"
    },
    {
        "locationId": 73,
        "name": "Warehouse BU",
        "address": "150151 Pinewood St",
        "city": "Metropolis",
        "state": "IL",
        "zipcode": "60003"
    },
    {
        "locationId": 74,
        "name": "Warehouse BV",
        "address": "152153 Oakwood St",
        "city": "Gotham",
        "state": "NJ",
        "zipcode": "07003"
    },
    {
        "locationId": 75,
        "name": "Warehouse BW",
        "address": "154155 Birchwood St",
        "city": "Star City",
        "state": "CA",
        "zipcode": "90004"
    },
    {
        "locationId": 76,
        "name": "Warehouse BX",
        "address": "156157 Elmwood St",
        "city": "Smallville",
        "state": "KS",
        "zipcode": "66003"
    },
    {
        "locationId": 77,
        "name": "Warehouse BY",
        "address": "158159 Redwoodwood St",
        "city": "Riverdale",
        "state": "NY",
        "zipcode": "10503"
    },
    {
        "locationId": 78,
        "name": "Warehouse BZ",
        "address": "160161 Palmwood St",
        "city": "Hill Valley",
        "state": "CA",
        "zipcode": "94003"
    },
    {
        "locationId": 79,
        "name": "Warehouse CA",
        "address": "162163 Cypresswood St",
        "city": "Springfield",
        "state": "IL",
        "zipcode": "62703"
    },
    {
        "locationId": 80,
        "name": "Warehouse CB",
        "address": "164165 Magnoliawood St",
        "city": "Shelbyville",
        "state": "TN",
        "zipcode": "37162"
    },
    {
        "locationId": 81,
        "name": "Warehouse CC",
        "address": "166167 Juniperwood St",
        "city": "Quahog",
        "state": "RI",
        "zipcode": "02862"
    },
    {
        "locationId": 82,
        "name": "Warehouse CD",
        "address": "168169 Hickorywood St",
        "city": "South Park",
        "state": "CO",
        "zipcode": "80442"
    },
    {
        "locationId": 83,
        "name": "Warehouse CE",
        "address": "170171 Maplewood St",
        "city": "Arlen",
        "state": "TX",
        "zipcode": "78004"
    },
    {
        "locationId": 84,
        "name": "Warehouse CF",
        "address": "172173 Sprucewood St",
        "city": "Hogsmeade",
        "state": "MA",
        "zipcode": "01004"
    },
    {
        "locationId": 85,
        "name": "Warehouse CG",
        "address": "174175 Firwood St",
        "city": "Bedrock",
        "state": "WY",
        "zipcode": "82003"
    },
    {
        "locationId": 86,
        "name": "Warehouse CH",
        "address": "176177 Alderwood St",
        "city": "Atlantis",
        "state": "GA",
        "zipcode": "30303"
    },
    {
        "locationId": 87,
        "name": "Warehouse CI",
        "address": "178179 Ashwood St",
        "city": "Emerald City",
        "state": "KS",
        "zipcode": "66103"
    },
    {
        "locationId": 88,
        "name": "Warehouse CJ",
        "address": "180181 Poplarwood St",
        "city": "Sunnydale",
        "state": "CA",
        "zipcode": "91003"
    },
    {
        "locationId": 89,
        "name": "Warehouse CK",
        "address": "182183 Pinewood St",
        "city": "Eureka",
        "state": "CA",
        "zipcode": "95503"
    },
    {
        "locationId": 90,
        "name": "Warehouse CL",
        "address": "184185 Redwoodwood St",
        "city": "Twin Peaks",
        "state": "WA",
        "zipcode": "98203"
    },
    {
        "locationId": 91,
        "name": "Warehouse CM",
        "address": "186187 Palmwood St",
        "city": "Raccoon City",
        "state": "IN",
        "zipcode": "46003"
    },
    {
        "locationId": 92,
        "name": "Warehouse CN",
        "address": "188189 Cypresswood St",
        "city": "Hill House",
        "state": "OH",
        "zipcode": "43203"
    },
    {
        "locationId": 93,
        "name": "Warehouse CO",
        "address": "190191 Magnoliawood St",
        "city": "Silent Hill",
        "state": "PA",
        "zipcode": "15003"
    },
    {
        "locationId": 94,
        "name": "Warehouse CP",
        "address": "192193 Juniperwood St",
        "city": "Mystic Falls",
        "state": "VA",
        "zipcode": "22903"
    },
    {
        "locationId": 95,
        "name": "Warehouse CQ",
        "address": "194195 Hickorywood St",
        "city": "Stars Hollow",
        "state": "CT",
        "zipcode": "06462"
    },
    {
        "locationId": 96,
        "name": "Warehouse CR",
        "address": "196197 Dogwoodwood St",
        "city": "Bon Temps",
        "state": "LA",
        "zipcode": "70003"
    },
    {
        "locationId": 97,
        "name": "Warehouse CS",
        "address": "198199 Aspenwood St",
        "city": "Bikini Bottom",
        "state": "NY",
        "zipcode": "11903"
    },
    {
        "locationId": 98,
        "name": "Warehouse CT",
        "address": "200201 Maplewood St",
        "city": "Narnia",
        "state": "NY",
        "zipcode": "10004"
    },
    {
        "locationId": 99,
        "name": "Warehouse CU",
        "address": "202203 Sycamorewood St",
        "city": "Pawnee",
        "state": "IN",
        "zipcode": "46004"
    },
    {
        "locationId": 100,
        "name": "Warehouse CV",
        "address": "204205 Maplewood St",
        "city": "Elwood City",
        "state": "PA",
        "zipcode": "15004"
    }
]